start=new Date('2021-09-18T00:00:00.000Z').valueOf();
sats=[{"PERIOD":"95.592","RCS_SIZE":"LARGE","INCLINATION":"53.0552","APOAPSIS":"548.584","OBJECT_ID":"2020-001S","FILE":"3118116","BSTAR":"0.00007662200000","LAUNCH_DATE":"2020-01-07","MEAN_MOTION_DOT":"0.00000860","COUNTRY_CODE":"US","CLASSIFICATION_TYPE":"U","MEAN_MOTION":"15.06398339","DECAY_DATE":null,"NORAD_CAT_ID":"44930","TLE_LINE1":"1 44930U 20001S   21260.73174331  .00000860  00000-0  76622-4 0  9994","OBJECT_TYPE":"PAYLOAD","OBJECT_NAME":"STARLINK-1123","EPOCH":"2021-09-17T17:33:42.621984","RA_OF_ASC_NODE":"121.7547","TIME_SYSTEM":"UTC","ARG_OF_PERICENTER":"85.7525","GP_ID":"184911376","CENTER_NAME":"EARTH","TLE_LINE2":"2 44930  53.0552 121.7547 0001971  85.7525 274.3689 15.06398339 93579","REF_FRAME":"TEME","SITE":"AFETR","ELEMENT_SET_NO":"999","MEAN_ANOMALY":"274.3689","ECCENTRICITY":"0.00019710","REV_AT_EPOCH":"9357","MEAN_ELEMENT_THEORY":"SGP4","PERIAPSIS":"545.854","SEMIMAJOR_AXIS":"6925.354","EPHEMERIS_TYPE":"0","MEAN_MOTION_DDOT":"0.0000000000000"},{"LAUNCH_DATE":"2020-01-07","BSTAR":"0.00006356400000","FILE":"3118116","OBJECT_ID":"2020-001T","MEAN_MOTION_DOT":"0.00000665","INCLINATION":"53.0530","RCS_SIZE":"LARGE","PERIOD":"95.593","APOAPSIS":"548.615","OBJECT_TYPE":"PAYLOAD","TLE_LINE1":"1 44931U 20001T   21260.90867530  .00000665  00000-0  63564-4 0  9998","NORAD_CAT_ID":"44931","DECAY_DATE":null,"COUNTRY_CODE":"US","MEAN_MOTION":"15.06393918","CLASSIFICATION_TYPE":"U","CENTER_NAME":"EARTH","GP_ID":"184910124","SITE":"AFETR","REF_FRAME":"TEME","TLE_LINE2":"2 44931  53.0530 120.9507 0001997  78.2306 281.8907 15.06393918 94345","RA_OF_ASC_NODE":"120.9507","TIME_SYSTEM":"UTC","EPOCH":"2021-09-17T21:48:29.545920","OBJECT_NAME":"STARLINK-1128","ARG_OF_PERICENTER":"78.2306","SEMIMAJOR_AXIS":"6925.367","MEAN_MOTION_DDOT":"0.0000000000000","EPHEMERIS_TYPE":"0","ECCENTRICITY":"0.00019970","MEAN_ANOMALY":"281.8907","ELEMENT_SET_NO":"999","PERIAPSIS":"545.849","MEAN_ELEMENT_THEORY":"SGP4","REV_AT_EPOCH":"9434"},{"CLASSIFICATION_TYPE":"U","MEAN_MOTION":"15.06396564","COUNTRY_CODE":"US","DECAY_DATE":null,"NORAD_CAT_ID":"44932","TLE_LINE1":"1 44932U 20001U   21260.91973176  .00000714  00000-0  66817-4 0  9993","OBJECT_TYPE":"PAYLOAD","APOAPSIS":"548.613","RCS_SIZE":"LARGE","PERIOD":"95.592","INCLINATION":"53.0553","MEAN_MOTION_DOT":"0.00000714","OBJECT_ID":"2020-001U","FILE":"3118116","BSTAR":"0.00006681700000","LAUNCH_DATE":"2020-01-07","REV_AT_EPOCH":"9483","MEAN_ELEMENT_THEORY":"SGP4","PERIAPSIS":"545.835","ELEMENT_SET_NO":"999","MEAN_ANOMALY":"284.5861","ECCENTRICITY":"0.00020060","MEAN_MOTION_DDOT":"0.0000000000000","EPHEMERIS_TYPE":"0","SEMIMAJOR_AXIS":"6925.359","ARG_OF_PERICENTER":"75.5350","OBJECT_NAME":"STARLINK-1130","EPOCH":"2021-09-17T22:04:24.824064","TIME_SYSTEM":"UTC","RA_OF_ASC_NODE":"120.9115","TLE_LINE2":"2 44932  53.0553 120.9115 0002006  75.5350 284.5861 15.06396564 94830","REF_FRAME":"TEME","SITE":"AFETR","GP_ID":"184910374","CENTER_NAME":"EARTH"},{"APOAPSIS":"548.608","INCLINATION":"53.0540","RCS_SIZE":"LARGE","PERIOD":"95.592","MEAN_MOTION_DOT":"0.00000607","LAUNCH_DATE":"2020-01-07","FILE":"3118116","BSTAR":"0.00005965000000","OBJECT_ID":"2020-001V","MEAN_MOTION":"15.06403286","CLASSIFICATION_TYPE":"U","COUNTRY_CODE":"US","OBJECT_TYPE":"PAYLOAD","TLE_LINE1":"1 44933U 20001V   21260.87917840  .00000607  00000-0  59650-4 0  9993","NORAD_CAT_ID":"44933","DECAY_DATE":null,"ARG_OF_PERICENTER":"77.4125","RA_OF_ASC_NODE":"121.0851","TIME_SYSTEM":"UTC","EPOCH":"2021-09-17T21:06:01.013760","OBJECT_NAME":"STARLINK-1144","SITE":"AFETR","REF_FRAME":"TEME","TLE_LINE2":"2 44933  53.0540 121.0851 0002028  77.4125 282.7090 15.06403286 94880","CENTER_NAME":"EARTH","GP_ID":"184910626","PERIAPSIS":"545.799","MEAN_ELEMENT_THEORY":"SGP4","REV_AT_EPOCH":"9488","ECCENTRICITY":"0.00020280","MEAN_ANOMALY":"282.7090","ELEMENT_SET_NO":"999","EPHEMERIS_TYPE":"0","MEAN_MOTION_DDOT":"0.0000000000000","SEMIMAJOR_AXIS":"6925.338"},{"APOAPSIS":"548.600","RCS_SIZE":"LARGE","PERIOD":"95.593","INCLINATION":"53.0540","MEAN_MOTION_DOT":"0.00000884","FILE":"3118116","BSTAR":"0.00007827000000","OBJECT_ID":"2020-001W","LAUNCH_DATE":"2020-01-07","CLASSIFICATION_TYPE":"U","MEAN_MOTION":"15.06380688","COUNTRY_CODE":"US","DECAY_DATE":null,"NORAD_CAT_ID":"44934","TLE_LINE1":"1 44934U 20001W   21260.82576132  .00000884  00000-0  78270-4 0  9990","OBJECT_TYPE":"PAYLOAD","ARG_OF_PERICENTER":"87.7940","OBJECT_NAME":"STARLINK-1071","EPOCH":"2021-09-17T19:49:05.778048","RA_OF_ASC_NODE":"101.3248","TIME_SYSTEM":"UTC","TLE_LINE2":"2 44934  53.0540 101.3248 0001917  87.7940 272.3269 15.06380688 93867","REF_FRAME":"TEME","SITE":"AFETR","GP_ID":"184910877","CENTER_NAME":"EARTH","REV_AT_EPOCH":"9386","MEAN_ELEMENT_THEORY":"SGP4","PERIAPSIS":"545.945","ELEMENT_SET_NO":"999","MEAN_ANOMALY":"272.3269","ECCENTRICITY":"0.00019170","MEAN_MOTION_DDOT":"0.0000000000000","EPHEMERIS_TYPE":"0","SEMIMAJOR_AXIS":"6925.408"},{"INCLINATION":"53.0531","RCS_SIZE":"LARGE","PERIOD":"91.635","APOAPSIS":"355.649","LAUNCH_DATE":"2020-01-07","OBJECT_ID":"2020-001X","FILE":"3117657","BSTAR":"0.00001479000000","MEAN_MOTION_DOT":"0.00001323","COUNTRY_CODE":"US","MEAN_MOTION":"15.71456903","CLASSIFICATION_TYPE":"U","OBJECT_TYPE":"PAYLOAD","TLE_LINE1":"1 44935U 20001X   21260.24488000  .00001323  00000-0  14790-4 0  9999","NORAD_CAT_ID":"44935","DECAY_DATE":null,"TIME_SYSTEM":"UTC","RA_OF_ASC_NODE":"95.2327","EPOCH":"2021-09-17T05:52:37.632000","OBJECT_NAME":"STARLINK-1072","ARG_OF_PERICENTER":"82.6355","CENTER_NAME":"EARTH","GP_ID":"184876940","SITE":"AFETR","REF_FRAME":"TEME","TLE_LINE2":"2 44935  53.0531  95.2327 0001359  82.6355 277.4816 15.71456903 93906","MEAN_ANOMALY":"277.4816","ECCENTRICITY":"0.00013590","ELEMENT_SET_NO":"999","PERIAPSIS":"353.819","MEAN_ELEMENT_THEORY":"SGP4","REV_AT_EPOCH":"9390","SEMIMAJOR_AXIS":"6732.869","MEAN_MOTION_DDOT":"0.0000000000000","EPHEMERIS_TYPE":"0"},{"EPHEMERIS_TYPE":"0","MEAN_MOTION_DDOT":"0.0000000000000","SEMIMAJOR_AXIS":"6720.583","REV_AT_EPOCH":"9455","PERIAPSIS":"340.976","MEAN_ELEMENT_THEORY":"SGP4","ELEMENT_SET_NO":"999","MEAN_ANOMALY":"271.7759","ECCENTRICITY":"0.00021910","REF_FRAME":"TEME","TLE_LINE2":"2 44936  53.0626  51.2611 0002191  88.3511 271.7759 15.75768177 94550","SITE":"AFETR","CENTER_NAME":"EARTH","GP_ID":"184909875","ARG_OF_PERICENTER":"88.3511","EPOCH":"2021-09-17T16:31:36.232320","OBJECT_NAME":"STARLINK-1078","TIME_SYSTEM":"UTC","RA_OF_ASC_NODE":"51.2611","NORAD_CAT_ID":"44936","DECAY_DATE":null,"OBJECT_TYPE":"PAYLOAD","TLE_LINE1":"1 44936U 20001Y   21260.68861380  .00031350  00000-0  20317-3 0  9998","CLASSIFICATION_TYPE":"U","MEAN_MOTION":"15.75768177","COUNTRY_CODE":"US","MEAN_MOTION_DOT":"0.00031350","BSTAR":"0.00020317000000","FILE":"3118116","OBJECT_ID":"2020-001Y","LAUNCH_DATE":"2020-01-07","APOAPSIS":"343.921","PERIOD":"91.384","RCS_SIZE":"LARGE","INCLINATION":"53.0626"},{"MEAN_MOTION_DOT":"-0.00000837","FILE":"3117914","OBJECT_ID":"2020-001Z","BSTAR":"-0.00003730400000","LAUNCH_DATE":"2020-01-07","APOAPSIS":"548.671","RCS_SIZE":"LARGE","PERIOD":"95.593","INCLINATION":"53.0557","DECAY_DATE":null,"NORAD_CAT_ID":"44937","TLE_LINE1":"1 44937U 20001Z   21260.27285820 -.00000837  00000-0 -37304-4 0  9996","OBJECT_TYPE":"PAYLOAD","CLASSIFICATION_TYPE":"U","MEAN_MOTION":"15.06392288","COUNTRY_CODE":"US","TLE_LINE2":"2 44937  53.0557 103.8136 0002071  84.2273 275.8952 15.06392288 93781","REF_FRAME":"TEME","SITE":"AFETR","GP_ID":"184887102","CENTER_NAME":"EARTH","ARG_OF_PERICENTER":"84.2273","OBJECT_NAME":"STARLINK-1079","EPOCH":"2021-09-17T06:32:54.948480","RA_OF_ASC_NODE":"103.8136","TIME_SYSTEM":"UTC","MEAN_MOTION_DDOT":"0.0000000000000","EPHEMERIS_TYPE":"0","SEMIMAJOR_AXIS":"6925.372","REV_AT_EPOCH":"9378","MEAN_ELEMENT_THEORY":"SGP4","PERIAPSIS":"545.803","ELEMENT_SET_NO":"999","MEAN_ANOMALY":"275.8952","ECCENTRICITY":"0.00020710"},{"OBJECT_NAME":"STARLINK-1082","EPOCH":"2021-09-17T20:05:00.017664","TIME_SYSTEM":"UTC","RA_OF_ASC_NODE":"101.2732","ARG_OF_PERICENTER":"92.7863","GP_ID":"184911377","CENTER_NAME":"EARTH","TLE_LINE2":"2 44938  53.0539 101.2732 0001868  92.7863 267.3340 15.06397656 93868","REF_FRAME":"TEME","SITE":"AFETR","ELEMENT_SET_NO":"999","ECCENTRICITY":"0.00018680","MEAN_ANOMALY":"267.3340","REV_AT_EPOCH":"9386","MEAN_ELEMENT_THEORY":"SGP4","PERIAPSIS":"545.927","SEMIMAJOR_AXIS":"6925.356","MEAN_MOTION_DDOT":"0.0000000000000","EPHEMERIS_TYPE":"0","RCS_SIZE":"LARGE","PERIOD":"95.592","INCLINATION":"53.0539","APOAPSIS":"548.514","BSTAR":"0.00006993600000","FILE":"3118116","OBJECT_ID":"2020-001AA","LAUNCH_DATE":"2020-01-07","MEAN_MOTION_DOT":"0.00000760","COUNTRY_CODE":"US","CLASSIFICATION_TYPE":"U","MEAN_MOTION":"15.06397656","DECAY_DATE":null,"NORAD_CAT_ID":"44938","TLE_LINE1":"1 44938U 20001AA  21260.83680576  .00000760  00000-0  69936-4 0  9995","OBJECT_TYPE":"PAYLOAD"},{"RCS_SIZE":"LARGE","PERIOD":"95.593","INCLINATION":"53.0554","APOAPSIS":"548.659","OBJECT_ID":"2020-001AB","FILE":"3118116","BSTAR":"-0.00005766200000","LAUNCH_DATE":"2020-01-07","MEAN_MOTION_DOT":"-0.00001140","COUNTRY_CODE":"US","CLASSIFICATION_TYPE":"U","MEAN_MOTION":"15.06390028","DECAY_DATE":null,"NORAD_CAT_ID":"44939","TLE_LINE1":"1 44939U 20001AB  21260.84417399 -.00001140  00000-0 -57662-4 0  9996","OBJECT_TYPE":"PAYLOAD","OBJECT_NAME":"STARLINK-1083","EPOCH":"2021-09-17T20:15:36.632736","RA_OF_ASC_NODE":"101.2494","TIME_SYSTEM":"UTC","ARG_OF_PERICENTER":"89.0373","GP_ID":"184910125","CENTER_NAME":"EARTH","TLE_LINE2":"2 44939  53.0554 101.2494 0002043  89.0373 271.0850 15.06390028 93866","REF_FRAME":"TEME","SITE":"AFETR","ELEMENT_SET_NO":"999","ECCENTRICITY":"0.00020430","MEAN_ANOMALY":"271.0850","REV_AT_EPOCH":"9386","MEAN_ELEMENT_THEORY":"SGP4","PERIAPSIS":"545.829","SEMIMAJOR_AXIS":"6925.379","EPHEMERIS_TYPE":"0","MEAN_MOTION_DDOT":"0.0000000000000"}];
